ONEWEB-0514             
1 54132U 22138V   25219.97331664  .00000035  00000+0  55345-4 0  9992
2 54132  87.9245   7.2209 0001802  99.0510 261.0827 13.19724275136385
ONEWEB-0515             
1 54133U 22138W   25220.62209663 -.00000064  00000+0 -19030-3 0  9994
2 54133  87.9307 336.6949 0001022 111.0881 249.0362 13.20772792138049
ONEWEB-0516             
1 54134U 22138X   25220.40293718  .00000062  00000+0  12253-3 0  9991
2 54134  87.9237   7.1715 0001851  90.7406 269.3938 13.19727111135571
ONEWEB-0517             
1 54135U 22138Y   25220.38240581  .00000075  00000+0  15493-3 0  9992
2 54135  87.9246   7.1348 0002101 101.8986 258.2382 13.19726829135575
ONEWEB-0518             
1 54136U 22138Z   25220.17392338 -.00000023  00000+0 -89548-4 0  9996
2 54136  87.9242   7.2135 0001953  90.7754 269.3603 13.19725649135545
ONEWEB-0519             
1 54137U 22138AA  25220.35081646  .00000117  00000+0  26049-3 0  9992
2 54137  87.9245   7.1332 0002062  99.3974 260.7392 13.19726881135570
ONEWEB-0520             
1 54138U 22138AB  25220.38557082 -.00000044  00000+0 -14129-3 0  9995
2 54138  87.9245   7.1303 0002002  86.2228 273.9134 13.19725343135561
ONEWEB-0521             
1 54139U 22138AC  25220.41873840  .00000066  00000+0  13183-3 0  9994
2 54139  87.9244   7.1102 0001940 103.0819 257.0530 13.19724883135518
ONEWEB-0522             
1 54140U 22138AD  25220.39820353  .00000000  00000+0 -32197-4 0  9990
2 54140  87.9244   7.1156 0001843  92.5644 267.5700 13.19724960135554
ONEWEB-0523             
1 54141U 22138AE  25220.60948640 -.00000017  00000+0 -72957-4 0  9992
2 54141  87.9297 336.7265 0001591 125.8042 234.3240 13.20771795138045
ONEWEB-0524             
1 54142U 22138AF  25220.59843630  .00000067  00000+0  13256-3 0  9993
2 54142  87.9295 336.7298 0000995  92.1443 267.9804 13.20770864138042
ONEWEB-0525             
1 54143U 22138AG  25220.34134408  .00000056  00000+0  10715-3 0  9998
2 54143  87.9246   7.1469 0001995  87.6759 272.4602 13.19724732135560
ONEWEB-0526             
1 54144U 22138AH  25220.37452171  .00000013  00000+0  10242-5 0  9992
2 54144  87.9243   7.1282 0001848  92.2830 267.8514 13.19725651135549
ONEWEB-0529             
1 54145U 22138AJ  25220.37768740  .00000017  00000+0  93763-5 0  9998
2 54145  87.9236   7.1698 0001931  87.2925 272.8428 13.19725434135566
ONEWEB-0531             
1 54146U 22138AK  25220.58423133  .00000039  00000+0  64107-4 0  9999
2 54146  87.9290 336.7261 0001308 123.3245 236.8014 13.20772256138042
ONEWEB-0535             
1 54147U 22138AL  25220.63829905  .00000004  00000+0 -22217-4 0  9992
2 54147  87.9244   7.0716 0001709 107.3161 252.8159 13.19726830135612
ONEWEB-0536             
1 54148U 22138AM  25219.88978718  .00000070  00000+0  13978-3 0  9990
2 54148  87.9293 336.9095 0001012 123.0948 237.0282 13.20771854138811
