[{"OBJECT_NAME":"ONEWEB-0514","OBJECT_ID":"2022-138V","EPOCH":"2025-08-07T23:21:34.557696","MEAN_MOTION":13.19724275,"ECCENTRICITY":0.0001802,"INCLINATION":87.9245,"RA_OF_ASC_NODE":7.2209,"ARG_OF_PERICENTER":99.051,"MEAN_ANOMALY":261.0827,"EPHEMERIS_TYPE":0,"CLASSIFICATION_TYPE":"U","NORAD_CAT_ID":54132,"ELEMENT_SET_NO":999,"REV_AT_EPOCH":13638,"BSTAR":5.5345e-5,"MEAN_MOTION_DOT":3.5e-7,"MEAN_MOTION_DDOT":0},{"OBJECT_NAME":"ONEWEB-0515","OBJECT_ID":"2022-138W","EPOCH":"2025-08-08T14:55:49.148832","MEAN_MOTION":13.20772792,"ECCENTRICITY":0.0001022,"INCLINATION":87.9307,"RA_OF_ASC_NODE":336.6949,"ARG_OF_PERICENTER":111.0881,"MEAN_ANOMALY":249.0362,"EPHEMERIS_TYPE":0,"CLASSIFICATION_TYPE":"U","NORAD_CAT_ID":54133,"ELEMENT_SET_NO":999,"REV_AT_EPOCH":13804,"BSTAR":-0.0001903,"MEAN_MOTION_DOT":-6.4e-7,"MEAN_MOTION_DDOT":0},{"OBJECT_NAME":"ONEWEB-0516","OBJECT_ID":"2022-138X","EPOCH":"2025-08-08T09:40:13.772352","MEAN_MOTION":13.19727111,"ECCENTRICITY":0.0001851,"INCLINATION":87.9237,"RA_OF_ASC_NODE":7.1715,"ARG_OF_PERICENTER":90.7406,"MEAN_ANOMALY":269.3938,"EPHEMERIS_TYPE":0,"CLASSIFICATION_TYPE":"U","NORAD_CAT_ID":54134,"ELEMENT_SET_NO":999,"REV_AT_EPOCH":13557,"BSTAR":0.00012253,"MEAN_MOTION_DOT":6.2e-7,"MEAN_MOTION_DDOT":0},{"OBJECT_NAME":"ONEWEB-0517","OBJECT_ID":"2022-138Y","EPOCH":"2025-08-08T09:10:39.861984","MEAN_MOTION":13.19726829,"ECCENTRICITY":0.0002101,"INCLINATION":87.9246,"RA_OF_ASC_NODE":7.1348,"ARG_OF_PERICENTER":101.8986,"MEAN_ANOMALY":258.2382,"EPHEMERIS_TYPE":0,"CLASSIFICATION_TYPE":"U","NORAD_CAT_ID":54135,"ELEMENT_SET_NO":999,"REV_AT_EPOCH":13557,"BSTAR":0.00015493,"MEAN_MOTION_DOT":7.5e-7,"MEAN_MOTION_DDOT":0},{"OBJECT_NAME":"ONEWEB-0518","OBJECT_ID":"2022-138Z","EPOCH":"2025-08-08T04:10:26.980032","MEAN_MOTION":13.19725649,"ECCENTRICITY":0.0001953,"INCLINATION":87.9242,"RA_OF_ASC_NODE":7.2135,"ARG_OF_PERICENTER":90.7754,"MEAN_ANOMALY":269.3603,"EPHEMERIS_TYPE":0,"CLASSIFICATION_TYPE":"U","NORAD_CAT_ID":54136,"ELEMENT_SET_NO":999,"REV_AT_EPOCH":13554,"BSTAR":-8.9548e-5,"MEAN_MOTION_DOT":-2.3e-7,"MEAN_MOTION_DDOT":0},{"OBJECT_NAME":"ONEWEB-0519","OBJECT_ID":"2022-138AA","EPOCH":"2025-08-08T08:25:10.542144","MEAN_MOTION":13.19726881,"ECCENTRICITY":0.0002062,"INCLINATION":87.9245,"RA_OF_ASC_NODE":7.1332,"ARG_OF_PERICENTER":99.3974,"MEAN_ANOMALY":260.7392,"EPHEMERIS_TYPE":0,"CLASSIFICATION_TYPE":"U","NORAD_CAT_ID":54137,"ELEMENT_SET_NO":999,"REV_AT_EPOCH":13557,"BSTAR":0.00026049,"MEAN_MOTION_DOT":1.17e-6,"MEAN_MOTION_DDOT":0},{"OBJECT_NAME":"ONEWEB-0520","OBJECT_ID":"2022-138AB","EPOCH":"2025-08-08T09:15:13.318848","MEAN_MOTION":13.19725343,"ECCENTRICITY":0.0002002,"INCLINATION":87.9245,"RA_OF_ASC_NODE":7.1303,"ARG_OF_PERICENTER":86.2228,"MEAN_ANOMALY":273.9134,"EPHEMERIS_TYPE":0,"CLASSIFICATION_TYPE":"U","NORAD_CAT_ID":54138,"ELEMENT_SET_NO":999,"REV_AT_EPOCH":13556,"BSTAR":-0.00014129,"MEAN_MOTION_DOT":-4.4e-7,"MEAN_MOTION_DDOT":0},{"OBJECT_NAME":"ONEWEB-0521","OBJECT_ID":"2022-138AC","EPOCH":"2025-08-08T10:02:58.997760","MEAN_MOTION":13.19724883,"ECCENTRICITY":0.000194,"INCLINATION":87.9244,"RA_OF_ASC_NODE":7.1102,"ARG_OF_PERICENTER":103.0819,"MEAN_ANOMALY":257.053,"EPHEMERIS_TYPE":0,"CLASSIFICATION_TYPE":"U","NORAD_CAT_ID":54139,"ELEMENT_SET_NO":999,"REV_AT_EPOCH":13551,"BSTAR":0.00013183,"MEAN_MOTION_DOT":6.6e-7,"MEAN_MOTION_DDOT":0},{"OBJECT_NAME":"ONEWEB-0522","OBJECT_ID":"2022-138AD","EPOCH":"2025-08-08T09:33:24.784992","MEAN_MOTION":13.1972496,"ECCENTRICITY":0.0001843,"INCLINATION":87.9244,"RA_OF_ASC_NODE":7.1156,"ARG_OF_PERICENTER":92.5644,"MEAN_ANOMALY":267.57,"EPHEMERIS_TYPE":0,"CLASSIFICATION_TYPE":"U","NORAD_CAT_ID":54140,"ELEMENT_SET_NO":999,"REV_AT_EPOCH":13555,"BSTAR":-3.2197e-5,"MEAN_MOTION_DOT":0,"MEAN_MOTION_DDOT":0},{"OBJECT_NAME":"ONEWEB-0523","OBJECT_ID":"2022-138AE","EPOCH":"2025-08-08T14:37:39.624960","MEAN_MOTION":13.20771795,"ECCENTRICITY":0.0001591,"INCLINATION":87.9297,"RA_OF_ASC_NODE":336.7265,"ARG_OF_PERICENTER":125.8042,"MEAN_ANOMALY":234.324,"EPHEMERIS_TYPE":0,"CLASSIFICATION_TYPE":"U","NORAD_CAT_ID":54141,"ELEMENT_SET_NO":999,"REV_AT_EPOCH":13804,"BSTAR":-7.2957e-5,"MEAN_MOTION_DOT":-1.7e-7,"MEAN_MOTION_DDOT":0},{"OBJECT_NAME":"ONEWEB-0524","OBJECT_ID":"2022-138AF","EPOCH":"2025-08-08T14:21:44.896320","MEAN_MOTION":13.20770864,"ECCENTRICITY":9.95e-5,"INCLINATION":87.9295,"RA_OF_ASC_NODE":336.7298,"ARG_OF_PERICENTER":92.1443,"MEAN_ANOMALY":267.9804,"EPHEMERIS_TYPE":0,"CLASSIFICATION_TYPE":"U","NORAD_CAT_ID":54142,"ELEMENT_SET_NO":999,"REV_AT_EPOCH":13804,"BSTAR":0.00013256,"MEAN_MOTION_DOT":6.7e-7,"MEAN_MOTION_DDOT":0},{"OBJECT_NAME":"ONEWEB-0525","OBJECT_ID":"2022-138AG","EPOCH":"2025-08-08T08:11:32.128512","MEAN_MOTION":13.19724732,"ECCENTRICITY":0.0001995,"INCLINATION":87.9246,"RA_OF_ASC_NODE":7.1469,"ARG_OF_PERICENTER":87.6759,"MEAN_ANOMALY":272.4602,"EPHEMERIS_TYPE":0,"CLASSIFICATION_TYPE":"U","NORAD_CAT_ID":54143,"ELEMENT_SET_NO":999,"REV_AT_EPOCH":13556,"BSTAR":0.00010715,"MEAN_MOTION_DOT":5.6e-7,"MEAN_MOTION_DDOT":0},{"OBJECT_NAME":"ONEWEB-0526","OBJECT_ID":"2022-138AH","EPOCH":"2025-08-08T08:59:18.675744","MEAN_MOTION":13.19725651,"ECCENTRICITY":0.0001848,"INCLINATION":87.9243,"RA_OF_ASC_NODE":7.1282,"ARG_OF_PERICENTER":92.283,"MEAN_ANOMALY":267.8514,"EPHEMERIS_TYPE":0,"CLASSIFICATION_TYPE":"U","NORAD_CAT_ID":54144,"ELEMENT_SET_NO":999,"REV_AT_EPOCH":13554,"BSTAR":1.0242e-6,"MEAN_MOTION_DOT":1.3e-7,"MEAN_MOTION_DDOT":0},{"OBJECT_NAME":"ONEWEB-0529","OBJECT_ID":"2022-138AJ","EPOCH":"2025-08-08T09:03:52.191360","MEAN_MOTION":13.19725434,"ECCENTRICITY":0.0001931,"INCLINATION":87.9236,"RA_OF_ASC_NODE":7.1698,"ARG_OF_PERICENTER":87.2925,"MEAN_ANOMALY":272.8428,"EPHEMERIS_TYPE":0,"CLASSIFICATION_TYPE":"U","NORAD_CAT_ID":54145,"ELEMENT_SET_NO":999,"REV_AT_EPOCH":13556,"BSTAR":9.3763e-6,"MEAN_MOTION_DOT":1.7e-7,"MEAN_MOTION_DDOT":0},{"OBJECT_NAME":"ONEWEB-0531","OBJECT_ID":"2022-138AK","EPOCH":"2025-08-08T14:01:17.586912","MEAN_MOTION":13.20772256,"ECCENTRICITY":0.0001308,"INCLINATION":87.929,"RA_OF_ASC_NODE":336.7261,"ARG_OF_PERICENTER":123.3245,"MEAN_ANOMALY":236.8014,"EPHEMERIS_TYPE":0,"CLASSIFICATION_TYPE":"U","NORAD_CAT_ID":54146,"ELEMENT_SET_NO":999,"REV_AT_EPOCH":13804,"BSTAR":6.4107e-5,"MEAN_MOTION_DOT":3.9e-7,"MEAN_MOTION_DDOT":0},{"OBJECT_NAME":"ONEWEB-0535","OBJECT_ID":"2022-138AL","EPOCH":"2025-08-08T15:19:09.037920","MEAN_MOTION":13.1972683,"ECCENTRICITY":0.0001709,"INCLINATION":87.9244,"RA_OF_ASC_NODE":7.0716,"ARG_OF_PERICENTER":107.3161,"MEAN_ANOMALY":252.8159,"EPHEMERIS_TYPE":0,"CLASSIFICATION_TYPE":"U","NORAD_CAT_ID":54147,"ELEMENT_SET_NO":999,"REV_AT_EPOCH":13561,"BSTAR":-2.2217e-5,"MEAN_MOTION_DOT":4.0e-8,"MEAN_MOTION_DDOT":0},{"OBJECT_NAME":"ONEWEB-0536","OBJECT_ID":"2022-138AM","EPOCH":"2025-08-07T21:21:17.612352","MEAN_MOTION":13.20771854,"ECCENTRICITY":0.0001012,"INCLINATION":87.9293,"RA_OF_ASC_NODE":336.9095,"ARG_OF_PERICENTER":123.0948,"MEAN_ANOMALY":237.0282,"EPHEMERIS_TYPE":0,"CLASSIFICATION_TYPE":"U","NORAD_CAT_ID":54148,"ELEMENT_SET_NO":999,"REV_AT_EPOCH":13881,"BSTAR":0.00013978,"MEAN_MOTION_DOT":7.0e-7,"MEAN_MOTION_DDOT":0}]
